EXPRESS-A4              
1 27441U 02029A   17345.67924558 -.00000253  00000-0  00000-0 0  9998
2 27441   6.3572  55.4083 0003738 108.8062 306.2337  1.00277938 56792
